{
  "type": "FeatureCollection",
  "features": [
    {
      "type": "Feature",
      "properties": {
        "norad_id": 35915,
        "name": "IRIDIUM 33 DEB",
        "group": "iridium-33-debris",
        "lat": 86.21055394518804,
        "lon": 90.07847334375764,
        "alt_km": 622.8738782444461,
        "timestamp": "2025-12-08T05:48:09.419227+00:00",
        "meta_object_name": "IRIDIUM 33 DEB",
        "meta_object_id": "1997-051TY",
        "meta_epoch": "2025-12-07T18:02:16.498176",
        "meta_mean_motion": 14.80542095,
        "meta_eccentricity": 0.00101746,
        "meta_inclination": 86.3429,
        "meta_ra_of_asc_node": 345.2367,
        "meta_arg_of_pericenter": 205.9072,
        "meta_mean_anomaly": 154.1641,
        "meta_ephemeris_type": 0,
        "meta_classification_type": "U",
        "meta_norad_cat_id": 35915,
        "meta_element_set_no": 999,
        "meta_rev_at_epoch": 8012,
        "meta_bstar": 0.0030076362,
        "meta_mean_motion_dot": 0.00023136,
        "meta_mean_motion_ddot": 0,
        "tle_line1": "1 35915U 97051TY  25341.75157984  .00023136  00000+0  30076-2 0  9998",
        "tle_line2": "2 35915  86.3429 345.2367 0010174 205.9072 154.1641 14.80542095 80126"
      },
      "geometry": {
        "type": "Point",
        "coordinates": [
          90.07847334375764,
          86.21055394518804
        ]
      }
    },
    {
      "type": "Feature",
      "properties": {
        "norad_id": 35918,
        "name": "IRIDIUM 33 DEB",
        "group": "iridium-33-debris",
        "lat": 1.6805844837846555,
        "lon": 77.85075228909109,
        "alt_km": 743.9270566664536,
        "timestamp": "2025-12-08T05:48:09.419237+00:00",
        "meta_object_name": "IRIDIUM 33 DEB",
        "meta_object_id": "1997-051UB",
        "meta_epoch": "2025-12-07T13:31:29.153568",
        "meta_mean_motion": 14.51171215,
        "meta_eccentricity": 0.00271834,
        "meta_inclination": 86.4003,
        "meta_ra_of_asc_node": 78.036,
        "meta_arg_of_pericenter": 186.5072,
        "meta_mean_anomaly": 234.2522,
        "meta_ephemeris_type": 0,
        "meta_classification_type": "U",
        "meta_norad_cat_id": 35918,
        "meta_element_set_no": 999,
        "meta_rev_at_epoch": 85132,
        "meta_bstar": 0.0020664418,
        "meta_mean_motion_dot": 8.262e-05,
        "meta_mean_motion_ddot": 0,
        "tle_line1": "1 35918U 97051UB  25341.56353187  .00008262  00000+0  20664-2 0  9998",
        "tle_line2": "2 35918  86.4003  78.0360 0027183 186.5072 234.2522 14.51171215851320"
      },
      "geometry": {
        "type": "Point",
        "coordinates": [
          77.85075228909109,
          1.6805844837846555
        ]
      }
    },
    {
      "type": "Feature",
      "properties": {
        "norad_id": 35929,
        "name": "IRIDIUM 33 DEB",
        "group": "iridium-33-debris",
        "lat": 7.029338231739666,
        "lon": -44.77908450758002,
        "alt_km": 552.6671535030182,
        "timestamp": "2025-12-08T05:48:09.419247+00:00",
        "meta_object_name": "IRIDIUM 33 DEB",
        "meta_object_id": "1997-051UN",
        "meta_epoch": "2025-12-02T05:49:26.493600",
        "meta_mean_motion": 15.0130448,
        "meta_eccentricity": 0.00195405,
        "meta_inclination": 86.3365,
        "meta_ra_of_asc_node": 317.6053,
        "meta_arg_of_pericenter": 65.7501,
        "meta_mean_anomaly": 294.577,
        "meta_ephemeris_type": 0,
        "meta_classification_type": "U",
        "meta_norad_cat_id": 35929,
        "meta_element_set_no": 999,
        "meta_rev_at_epoch": 87622,
        "meta_bstar": 0.0032053397,
        "meta_mean_motion_dot": 0.00041608,
        "meta_mean_motion_ddot": 0,
        "tle_line1": "1 35929U 97051UN  25336.24266775  .00041608  00000+0  32053-2 0  9991",
        "tle_line2": "2 35929  86.3365 317.6053 0019540  65.7501 294.5770 15.01304480876224"
      },
      "geometry": {
        "type": "Point",
        "coordinates": [
          -44.77908450758002,
          7.029338231739666
        ]
      }
    },
    {
      "type": "Feature",
      "properties": {
        "norad_id": 36011,
        "name": "IRIDIUM 33 DEB",
        "group": "iridium-33-debris",
        "lat": -31.86598114106855,
        "lon": -140.36307473249698,
        "alt_km": 748.8135795664384,
        "timestamp": "2025-12-08T05:48:09.419257+00:00",
        "meta_object_name": "IRIDIUM 33 DEB",
        "meta_object_id": "1997-051US",
        "meta_epoch": "2025-12-07T10:45:06.253920",
        "meta_mean_motion": 14.41304966,
        "meta_eccentricity": 0.00172144,
        "meta_inclination": 86.3417,
        "meta_ra_of_asc_node": 37.6984,
        "meta_arg_of_pericenter": 234.8253,
        "meta_mean_anomaly": 180.968,
        "meta_ephemeris_type": 0,
        "meta_classification_type": "U",
        "meta_norad_cat_id": 36011,
        "meta_element_set_no": 999,
        "meta_rev_at_epoch": 64464,
        "meta_bstar": 0.00085167404,
        "meta_mean_motion_dot": 2.777e-05,
        "meta_mean_motion_ddot": 0,
        "tle_line1": "1 36011U 97051US  25341.44798905  .00002777  00000+0  85167-3 0  9996",
        "tle_line2": "2 36011  86.3417  37.6984 0017214 234.8253 180.9680 14.41304966644645"
      },
      "geometry": {
        "type": "Point",
        "coordinates": [
          -140.36307473249698,
          -31.86598114106855
        ]
      }
    },
    {
      "type": "Feature",
      "properties": {
        "norad_id": 36012,
        "name": "IRIDIUM 33 DEB",
        "group": "iridium-33-debris",
        "lat": 42.03594435607382,
        "lon": 126.13560547956125,
        "alt_km": 942.4866032101272,
        "timestamp": "2025-12-08T05:48:09.419268+00:00",
        "meta_object_name": "IRIDIUM 33 DEB",
        "meta_object_id": "1997-051UT",
        "meta_epoch": "2025-12-06T04:02:53.038752",
        "meta_mean_motion": 14.18666574,
        "meta_eccentricity": 0.02131994,
        "meta_inclination": 86.4443,
        "meta_ra_of_asc_node": 310.1835,
        "meta_arg_of_pericenter": 284.453,
        "meta_mean_anomaly": 73.3086,
        "meta_ephemeris_type": 0,
        "meta_classification_type": "U",
        "meta_norad_cat_id": 36012,
        "meta_element_set_no": 999,
        "meta_rev_at_epoch": 65391,
        "meta_bstar": 0.011047902,
        "meta_mean_motion_dot": 0.0002881,
        "meta_mean_motion_ddot": 0,
        "tle_line1": "1 36012U 97051UT  25340.16866943  .00028810  00000+0  11048-1 0  9994",
        "tle_line2": "2 36012  86.4443 310.1835 0213199 284.4530  73.3086 14.18666574653914"
      },
      "geometry": {
        "type": "Point",
        "coordinates": [
          126.13560547956125,
          42.03594435607382
        ]
      }
    },
    {
      "type": "Feature",
      "properties": {
        "norad_id": 36028,
        "name": "IRIDIUM 33 DEB",
        "group": "iridium-33-debris",
        "lat": 69.09637766040912,
        "lon": -41.4913122953137,
        "alt_km": 560.5662338075344,
        "timestamp": "2025-12-08T05:48:09.419278+00:00",
        "meta_object_name": "IRIDIUM 33 DEB",
        "meta_object_id": "1997-051VK",
        "meta_epoch": "2025-12-07T03:47:25.083744",
        "meta_mean_motion": 14.94882554,
        "meta_eccentricity": 0.0022029,
        "meta_inclination": 86.3219,
        "meta_ra_of_asc_node": 309.3218,
        "meta_arg_of_pericenter": 70.0676,
        "meta_mean_anomaly": 290.2923,
        "meta_ephemeris_type": 0,
        "meta_classification_type": "U",
        "meta_norad_cat_id": 36028,
        "meta_element_set_no": 999,
        "meta_rev_at_epoch": 87041,
        "meta_bstar": 0.0035058592,
        "meta_mean_motion_dot": 0.00038575,
        "meta_mean_motion_ddot": 0,
        "tle_line1": "1 36028U 97051VK  25341.15792921  .00038575  00000+0  35059-2 0  9993",
        "tle_line2": "2 36028  86.3219 309.3218 0022029  70.0676 290.2923 14.94882554870414"
      },
      "geometry": {
        "type": "Point",
        "coordinates": [
          -41.4913122953137,
          69.09637766040912
        ]
      }
    },
    {
      "type": "Feature",
      "properties": {
        "norad_id": 36080,
        "name": "IRIDIUM 33 DEB",
        "group": "iridium-33-debris",
        "lat": -7.783671012974376,
        "lon": 9.442346678176712,
        "alt_km": 753.4117692744612,
        "timestamp": "2025-12-08T05:48:09.419288+00:00",
        "meta_object_name": "IRIDIUM 33 DEB",
        "meta_object_id": "1997-051VM",
        "meta_epoch": "2025-12-07T08:15:24.109920",
        "meta_mean_motion": 14.46571942,
        "meta_eccentricity": 0.00176312,
        "meta_inclination": 86.3198,
        "meta_ra_of_asc_node": 10.3374,
        "meta_arg_of_pericenter": 174.0737,
        "meta_mean_anomaly": 186.0678,
        "meta_ephemeris_type": 0,
        "meta_classification_type": "U",
        "meta_norad_cat_id": 36080,
        "meta_element_set_no": 999,
        "meta_rev_at_epoch": 47336,
        "meta_bstar": 0.0010977788,
        "meta_mean_motion_dot": 3.982e-05,
        "meta_mean_motion_ddot": 0,
        "tle_line1": "1 36080U 97051VM  25341.34402905  .00003982  00000+0  10978-2 0  9999",
        "tle_line2": "2 36080  86.3198  10.3374 0017631 174.0737 186.0678 14.46571942473361"
      },
      "geometry": {
        "type": "Point",
        "coordinates": [
          9.442346678176712,
          -7.783671012974376
        ]
      }
    }
  ]
}